{"type":"FeatureCollection","features":[{"type":"Feature","geometry":{"type":"Point","coordinates":[114.1694,22.3193]},"properties":{"source":"drone_detection","source_key":"cam_01","name":"Detection Camera 01","monitored":true,"status":"active"}},{"type":"Feature","geometry":{"type":"Point","coordinates":[114.1694,22.321]},"properties":{"source":"drone_detection","source_key":"cam_02","name":"Detection Camera 02","monitored":true,"status":"active"}},{"type":"Feature","geometry":{"type":"Point","coordinates":[114.1743,22.3019]},"properties":{"source":"hko","source_key":"HKO_HKO","name":"HKO Tsim Sha Tsui HQ \u2014 east","monitored":true}},{"type":"Feature","geometry":{"type":"Point","coordinates":[114.1743,22.3019]},"properties":{"source":"hko","source_key":"HKO_HK2","name":"HKO Tsim Sha Tsui \u2014 west","monitored":true}},{"type":"Feature","geometry":{"type":"Point","coordinates":[113.9835,22.4689]},"properties":{"source":"hko","source_key":"HKO_LFS","name":"HKO Lau Fau Shan \u2014 west","monitored":true}},{"type":"Feature","geometry":{"type":"Point","coordinates":[114.3033,22.1822]},"properties":{"source":"hko","source_key":"HKO_WGL","name":"HKO Waglan Island \u2014 west","monitored":true}},{"type":"Feature","geometry":{"type":"Point","coordinates":[114.3033,22.1822]},"properties":{"source":"hko","source_key":"HKO_WL2","name":"HKO Waglan Island \u2014 NNW","monitored":true}},{"type":"Feature","geometry":{"type":"Point","coordinates":[114.0294,22.2108]},"properties":{"source":"hko","source_key":"HKO_CCE","name":"HKO Cheung Chau Tung Wan \u2014 east","monitored":true}},{"type":"Feature","geometry":{"type":"Point","coordinates":[113.9042,22.288]},"properties":{"source":"hko","source_key":"HKO_SLW","name":"HKO Sha Lo Wan \u2014 HKIA approach","monitored":true}},{"type":"Feature","geometry":{"type":"Point","coordinates":[114.2744,22.3756]},"properties":{"source":"hko","source_key":"HKO_SK2","name":"HKO Sai Kung Marine East \u2014 NE","monitored":true}},{"type":"Feature","geometry":{"type":"Point","coordinates":[114.2744,22.3756]},"properties":{"source":"hko","source_key":"HKO_SKG","name":"HKO Sai Kung Marine East \u2014 SE","monitored":true}},{"type":"Feature","geometry":{"type":"Point","coordinates":[114.1238,22.4117]},"properties":{"source":"hko","source_key":"HKO_TM2","name":"HKO Tai Mo Shan \u2014 SW","monitored":true}},{"type":"Feature","geometry":{"type":"Point","coordinates":[114.1238,22.4117]},"properties":{"source":"hko","source_key":"HKO_TM3","name":"HKO Tai Mo Shan \u2014 NE","monitored":true}},{"type":"Feature","geometry":{"type":"Point","coordinates":[114.0434,22.2912]},"properties":{"source":"hko","source_key":"HKO_DNL","name":"HKO Peng Chau \u2014 north (Penny's Bay)","monitored":true}},{"type":"Feature","geometry":{"type":"Point","coordinates":[114.0434,22.2912]},"properties":{"source":"hko","source_key":"HKO_PE2","name":"HKO Peng Chau \u2014 east","monitored":true}},{"type":"Feature","geometry":{"type":"Point","coordinates":[114.0088,22.4665]},"properties":{"source":"hko","source_key":"HKO_WLP","name":"HKO Wetland Park \u2014 NE","monitored":true}},{"type":"Feature","geometry":{"type":"Point","coordinates":[114.1847,22.3351]},"properties":{"source":"hko","source_key":"HKO_KLT","name":"HKO Kowloon City \u2014 SE","monitored":true}},{"type":"Feature","geometry":{"type":"Point","coordinates":[114.2258,22.2856]},"properties":{"source":"hko","source_key":"HKO_SWH","name":"HKO Sai Wan Ho \u2014 east","monitored":true}},{"type":"Feature","geometry":{"type":"Point","coordinates":[114.184,22.4426]},"properties":{"source":"hko","source_key":"HKO_TPK","name":"HKO Tai Po Kau \u2014 NE","monitored":true}},{"type":"Feature","geometry":{"type":"Point","coordinates":[114.1208,22.4327]},"properties":{"source":"hko","source_key":"HKO_KFB","name":"HKO Kadoorie Farm \u2014 west","monitored":true}},{"type":"Feature","geometry":{"type":"Point","coordinates":[114.0267,22.2011]},"properties":{"source":"hko","source_key":"HKO_CCH","name":"HKO Cheung Chau \u2014 north","monitored":true}},{"type":"Feature","geometry":{"type":"Point","coordinates":[114.1558,22.2889]},"properties":{"source":"hko","source_key":"HKO_CP1","name":"HKO Central Pier \u2014 east","monitored":true}},{"type":"Feature","geometry":{"type":"Point","coordinates":[114.1558,22.2889]},"properties":{"source":"hko","source_key":"HKO_HMM","name":"HKO HK Maritime Museum \u2014 east","monitored":true}},{"type":"Feature","geometry":{"type":"Point","coordinates":[114.161,22.2657]},"properties":{"source":"hko","source_key":"HKO_GSI","name":"HKO German Swiss Int'l School \u2014 south","monitored":true}},{"type":"Feature","geometry":{"type":"Point","coordinates":[114.0111,22.3628]},"properties":{"source":"hko","source_key":"HKO_TLC","name":"HKO Tai Lam Chung \u2014 south","monitored":true}},{"type":"Feature","geometry":{"type":"Point","coordinates":[114.1086,22.2262]},"properties":{"source":"hko","source_key":"HKO_LAM","name":"HKO Lamma Island \u2014 north","monitored":true}},{"type":"Feature","geometry":{"type":"Point","coordinates":[114.124,22.4926]},"properties":{"source":"hko","source_key":"HKO_ELC","name":"HKO Elegantia College \u2014 NW (Sheung Shui)","monitored":true}},{"type":"Feature","geometry":{"type":"Point","coordinates":[114.146,22.276]},"properties":{"source":"hko","source_key":"HKO_VPA","name":"HKO Victoria Peak \u2014 east","monitored":true}},{"type":"Feature","geometry":{"type":"Point","coordinates":[114.146,22.276]},"properties":{"source":"hko","source_key":"HKO_VPB","name":"HKO Victoria Peak \u2014 NNE","monitored":true}},{"type":"Feature","geometry":{"type":"Point","coordinates":[114.2998,22.2634]},"properties":{"source":"hko","source_key":"HKO_CWA","name":"HKO Clear Water Bay \u2014 east","monitored":true}},{"type":"Feature","geometry":{"type":"Point","coordinates":[114.2998,22.2634]},"properties":{"source":"hko","source_key":"HKO_CWB","name":"HKO Clear Water Bay \u2014 SW","monitored":true}},{"type":"Feature","geometry":{"type":"Point","coordinates":[114.1603,22.3031]},"properties":{"source":"hko","source_key":"HKO_IC1","name":"HKO ICC \u2014 SE","monitored":true}},{"type":"Feature","geometry":{"type":"Point","coordinates":[114.1603,22.3031]},"properties":{"source":"hko","source_key":"HKO_IC2","name":"HKO ICC \u2014 SW","monitored":true}},{"type":"Feature","geometry":{"type":"Point","coordinates":[114.3115,22.3682]},"properties":{"source":"hko","source_key":"HKO_KS2","name":"HKO Kau Sai Chau \u2014 WNW","monitored":true}},{"type":"Feature","geometry":{"type":"Point","coordinates":[113.9545,22.236]},"properties":{"source":"hko","source_key":"HKO_CS1","name":"HKO Cheung Sha \u2014 NW","monitored":true}},{"type":"Feature","geometry":{"type":"Point","coordinates":[114.1603,22.3031]},"properties":{"source":"hko","source_key":"HKO_CS2","name":"HKO Cheung Sha \u2014 north","monitored":true}},{"type":"Feature","geometry":{"type":"Point","coordinates":[113.94778,22.36462]},"properties":{"source":"td_cctv","source_key":"TD_TC003F","name":"TD TM-CLK Tunnel Northern Portal [TC003F]","monitored":true,"sky_score":0.9737}},{"type":"Feature","geometry":{"type":"Point","coordinates":[114.105179299,22.503091464]},"properties":{"source":"td_cctv","source_key":"TD_TDS91076","name":"TD Fanling Highway near Kwu Tung - Westbound (3) [TDS91076]","monitored":true,"sky_score":0.9385}},{"type":"Feature","geometry":{"type":"Point","coordinates":[114.20426,22.32452]},"properties":{"source":"td_cctv","source_key":"TD_K814F","name":"TD Kwun Tong Bypass near Kai Cheung Road [K814F]","monitored":true,"sky_score":0.9166}},{"type":"Feature","geometry":{"type":"Point","coordinates":[113.9971503,22.42438851]},"properties":{"source":"td_cctv","source_key":"TD_SW108F","name":"TD Yuen Long Highway near Tan Kwai Tsuen [SW108F]","monitored":true,"sky_score":0.9071}},{"type":"Feature","geometry":{"type":"Point","coordinates":[113.953067,22.372131]},"properties":{"source":"td_cctv","source_key":"TD_TC002F","name":"TD Lung Mun Rd Roundabout near TM-CLKL [TC002F]","monitored":true,"sky_score":0.8989}},{"type":"Feature","geometry":{"type":"Point","coordinates":[114.05799,22.43755]},"properties":{"source":"td_cctv","source_key":"TD_TL101F","name":"TD Tsing Long Highway near Ko Po San Tsuen [TL101F]","monitored":true,"sky_score":0.8901}},{"type":"Feature","geometry":{"type":"Point","coordinates":[114.2298,22.30909]},"properties":{"source":"td_cctv","source_key":"TD_K812F","name":"TD Kwun Tong Bypass near Laguna City [K812F]","monitored":true,"sky_score":0.8778}},{"type":"Feature","geometry":{"type":"Point","coordinates":[114.168633799999,22.3223077399999]},"properties":{"source":"td_cctv","source_key":"TD_K205F","name":"TD Nathan Road near Lai Chi Kok Road [K205F]","monitored":true,"sky_score":0.8689}},{"type":"Feature","geometry":{"type":"Point","coordinates":[114.1066537,22.33475496]},"properties":{"source":"td_cctv","source_key":"TD_TS102F","name":"TD Nam Wan Tunnel- Stonecutters Bridge side [TS102F]","monitored":true,"sky_score":0.8619}},{"type":"Feature","geometry":{"type":"Point","coordinates":[114.2339672,22.30140107]},"properties":{"source":"td_cctv","source_key":"TD_K952F","name":"TD Eastern Harbour Crossing Kowloon Side [K952F]","monitored":true,"sky_score":0.8546}},{"type":"Feature","geometry":{"type":"Point","coordinates":[114.083574824,22.502701129]},"properties":{"source":"td_cctv","source_key":"TD_TDS91072","name":"TD Fanling Highway near Chau Tau Tsuen - Westbound (1) [TDS91072]","monitored":true,"sky_score":0.8508}},{"type":"Feature","geometry":{"type":"Point","coordinates":[114.21844111,22.404272858]},"properties":{"source":"td_cctv","source_key":"TD_TDSMOSR10001","name":"TD Ma On Shan Road near Ah Kung Kok Fishermen Village - Northbound [TDSMOSR10001]","monitored":true,"sky_score":0.8422}},{"type":"Feature","geometry":{"type":"Point","coordinates":[114.1824479,22.37778258]},"properties":{"source":"td_cctv","source_key":"TD_SM933F","name":"TD Shing Mun Tunnel Road [SM933F]","monitored":true,"sky_score":0.842}},{"type":"Feature","geometry":{"type":"Point","coordinates":[114.26573,22.29197]},"properties":{"source":"td_cctv","source_key":"TD_TK701F","name":"TD Cross Bay Bridge near Lohas Park [TK701F]","monitored":true,"sky_score":0.8414}},{"type":"Feature","geometry":{"type":"Point","coordinates":[114.1714857,22.36758712]},"properties":{"source":"td_cctv","source_key":"TD_TS105F","name":"TD Sha Tin Heights Tunnel - Sha Tin Side [TS105F]","monitored":true,"sky_score":0.8413}},{"type":"Feature","geometry":{"type":"Point","coordinates":[114.01207,22.43783]},"properties":{"source":"td_cctv","source_key":"TD_SW111F","name":"TD Yuen Long Highway near Tong Yan San Tsuen Interchange [SW111F]","monitored":true,"sky_score":0.8378}},{"type":"Feature","geometry":{"type":"Point","coordinates":[114.207904107,22.405873625]},"properties":{"source":"td_cctv","source_key":"TD_TDSTPR10016","name":"TD Tai Po Road - Ma Liu Shui near Kau To Shan Road - Southbound [TDSTPR10016]","monitored":true,"sky_score":0.8249}},{"type":"Feature","geometry":{"type":"Point","coordinates":[114.16624,22.27948]},"properties":{"source":"td_cctv","source_key":"TD_H214F","name":"TD Harcourt Road near Red Cross Headquarter [H214F]","monitored":true,"sky_score":0.8237}},{"type":"Feature","geometry":{"type":"Point","coordinates":[113.969874755,22.405319693]},"properties":{"source":"td_cctv","source_key":"TD_TDSTTR20001","name":"TD Tsing Tin Road near Tsing Tin Playground - Westbound [TDSTTR20001]","monitored":true,"sky_score":0.819}},{"type":"Feature","geometry":{"type":"Point","coordinates":[114.209775246,22.391993368]},"properties":{"source":"td_cctv","source_key":"TD_TDS20004","name":"TD Tate's Cairn Highway near Shek Mun Interchange - Southbound [TDS20004]","monitored":true,"sky_score":0.8119}},{"type":"Feature","geometry":{"type":"Point","coordinates":[114.160644465,22.248255958]},"properties":{"source":"td_cctv","source_key":"TD_H422F2","name":"TD Ap Lei Chau Bridge Road near Aberdeen Police Station [H422F2]","monitored":true,"sky_score":0.8007}},{"type":"Feature","geometry":{"type":"Point","coordinates":[114.18015,22.28192]},"properties":{"source":"td_cctv","source_key":"TD_H215F","name":"TD Gloucester Road near Wan Chai Interchange [H215F]","monitored":true,"sky_score":0.7986}},{"type":"Feature","geometry":{"type":"Point","coordinates":[114.12667,22.49919]},"properties":{"source":"td_cctv","source_key":"TD_FH107F","name":"TD Fanling Highway near Pak Wo Road [FH107F]","monitored":true,"sky_score":0.7884}},{"type":"Feature","geometry":{"type":"Point","coordinates":[114.1611004,22.24828309]},"properties":{"source":"td_cctv","source_key":"TD_H422F1","name":"TD Wong Chuk Hang Road near Aberdeen Technical School [H422F1]","monitored":true,"sky_score":0.7861}},{"type":"Feature","geometry":{"type":"Point","coordinates":[114.1765444,22.27971054]},"properties":{"source":"td_cctv","source_key":"TD_H222F","name":"TD Gloucester Road near Sun Hung Kai Center [H222F]","monitored":true,"sky_score":0.784}},{"type":"Feature","geometry":{"type":"Point","coordinates":[114.156971946,22.287376332]},"properties":{"source":"td_cctv","source_key":"TD_CW103F","name":"TD Central - Wan Chai Bypass near Central [CW103F]","monitored":true,"sky_score":0.783}},{"type":"Feature","geometry":{"type":"Point","coordinates":[114.15305,22.28705]},"properties":{"source":"td_cctv","source_key":"TD_H110F","name":"TD Connaught Road Central near Shun Tak Centre [H110F]","monitored":true,"sky_score":0.7813}},{"type":"Feature","geometry":{"type":"Point","coordinates":[114.199656899999,22.3948848799999]},"properties":{"source":"td_cctv","source_key":"TD_ST703F","name":"TD Tai Po Road near MTR Racecourse Station [ST703F]","monitored":true,"sky_score":0.7716}},{"type":"Feature","geometry":{"type":"Point","coordinates":[114.2174335,22.3123059899999]},"properties":{"source":"td_cctv","source_key":"TD_K813F","name":"TD Kwun Tong Bypass near Lai Yip Street [K813F]","monitored":true,"sky_score":0.769}},{"type":"Feature","geometry":{"type":"Point","coordinates":[114.121657799999,22.36698179]},"properties":{"source":"td_cctv","source_key":"TD_TW116F","name":"TD Texaco Road Flyover near Sha Tsui Road [TW116F]","monitored":true,"sky_score":0.7675}},{"type":"Feature","geometry":{"type":"Point","coordinates":[114.25469,22.30529]},"properties":{"source":"td_cctv","source_key":"TD_TK110F","name":"TD Chui Ling Road near Po Shun Road [TK110F]","monitored":true,"sky_score":0.7668}},{"type":"Feature","geometry":{"type":"Point","coordinates":[113.959797,22.31537]},"properties":{"source":"td_cctv","source_key":"TD_TC001F","name":"TD TM-CLK Tunnel Southern Portal [TC001F]","monitored":true,"sky_score":0.7661}},{"type":"Feature","geometry":{"type":"Point","coordinates":[113.993380249,22.462357204]},"properties":{"source":"td_cctv","source_key":"TD_TDSTYR10001","name":"TD Tin Ying Road near Tin Wah Road - Northbound [TDSTYR10001]","monitored":true,"sky_score":0.7634}},{"type":"Feature","geometry":{"type":"Point","coordinates":[114.1535925,22.4778657499999]},"properties":{"source":"td_cctv","source_key":"TD_HH001F","name":"TD Heung Yuen Wai Highway near Fanling Highway Interchange [HH001F]","monitored":true,"sky_score":0.7625}},{"type":"Feature","geometry":{"type":"Point","coordinates":[113.9793256,22.4113728899999]},"properties":{"source":"td_cctv","source_key":"TD_TR706F","name":"TD Tuen Mun Road near MTR Siu Hong Station [TR706F]","monitored":true,"sky_score":0.7521}},{"type":"Feature","geometry":{"type":"Point","coordinates":[114.191701956,22.28988738]},"properties":{"source":"td_cctv","source_key":"TD_CW803F","name":"TD Central - Wan Chai Bypass near City Garden [CW803F]","monitored":true,"sky_score":0.751}},{"type":"Feature","geometry":{"type":"Point","coordinates":[114.246850824,22.428753717]},"properties":{"source":"td_cctv","source_key":"TD_TDSMOSB10005","name":"TD Ma On Shan Bypass near Cheung Muk Tau - Eastbound [TDSMOSB10005]","monitored":true,"sky_score":0.7478}},{"type":"Feature","geometry":{"type":"Point","coordinates":[113.9709987,22.29964603]},"properties":{"source":"td_cctv","source_key":"TD_NL206F","name":"TD Shun Long Road near North Lantau Highway [NL206F]","monitored":true,"sky_score":0.7437}},{"type":"Feature","geometry":{"type":"Point","coordinates":[114.1503591,22.4655748399999]},"properties":{"source":"td_cctv","source_key":"TD_FH711F","name":"TD Fanling Highway near Hong Lok Yuen [FH711F]","monitored":true,"sky_score":0.7436}},{"type":"Feature","geometry":{"type":"Point","coordinates":[114.0011184,22.42806827]},"properties":{"source":"td_cctv","source_key":"TD_SW109F","name":"TD Yuen Long Highway near Hung Tin Road [SW109F]","monitored":true,"sky_score":0.7428}},{"type":"Feature","geometry":{"type":"Point","coordinates":[114.20083,22.32284]},"properties":{"source":"td_cctv","source_key":"TD_CK002F","name":"TD Central Kowloon Bypass (Yau Ma Tei Section) KAI TAK INTERCHANGE [CK002F]","monitored":true,"sky_score":0.7425}},{"type":"Feature","geometry":{"type":"Point","coordinates":[114.049228095,22.365523102]},"properties":{"source":"td_cctv","source_key":"TD_TDS90029","name":"TD Tuen Mun Road near Sham Tseng - Westbound (5) [TDS90029]","monitored":true,"sky_score":0.7419}},{"type":"Feature","geometry":{"type":"Point","coordinates":[114.071897176,22.367896353]},"properties":{"source":"td_cctv","source_key":"TD_TDS90023","name":"TD Tuen Mun Road near Ting Kau - Westbound (4) [TDS90023]","monitored":true,"sky_score":0.7394}},{"type":"Feature","geometry":{"type":"Point","coordinates":[114.0317002,22.43381492]},"properties":{"source":"td_cctv","source_key":"TD_SW112F","name":"TD Yuen Long Highway near Shap Pat Heung [SW112F]","monitored":true,"sky_score":0.7387}},{"type":"Feature","geometry":{"type":"Point","coordinates":[114.17071,22.53048]},"properties":{"source":"td_cctv","source_key":"TD_HH002F","name":"TD Heung Yuen Wai Highway near Cheung Shan Tunnel North Portal [HH002F]","monitored":true,"sky_score":0.7376}},{"type":"Feature","geometry":{"type":"Point","coordinates":[114.2004308,22.37760035]},"properties":{"source":"td_cctv","source_key":"TD_ST715F","name":"TD Sha Lek Highway near Prince Wales Hospital [ST715F]","monitored":true,"sky_score":0.7334}},{"type":"Feature","geometry":{"type":"Point","coordinates":[114.241904461,22.424105093]},"properties":{"source":"td_cctv","source_key":"TD_TDSMOSB20004","name":"TD Ma On Shan Bypass near Lee On Estate - Westbound [TDSMOSB20004]","monitored":true,"sky_score":0.7288}},{"type":"Feature","geometry":{"type":"Point","coordinates":[114.082206421,22.370927935]},"properties":{"source":"td_cctv","source_key":"TD_TDS91005","name":"TD Tuen Mun Road near Ting Kau - Eastbound (2) [TDS91005]","monitored":true,"sky_score":0.7286}},{"type":"Feature","geometry":{"type":"Point","coordinates":[114.2119641,22.2910672699999]},"properties":{"source":"td_cctv","source_key":"TD_H802F","name":"TD Island Eastern Corridor near Hoi Yu Street [H802F]","monitored":true,"sky_score":0.7263}},{"type":"Feature","geometry":{"type":"Point","coordinates":[114.0605797,22.4103048899999]},"properties":{"source":"td_cctv","source_key":"TD_TL102F","name":"TD Tai Lam Tunnel - Yuen Long Side [TL102F]","monitored":true,"sky_score":0.7246}},{"type":"Feature","geometry":{"type":"Point","coordinates":[114.086188256,22.36949436]},"properties":{"source":"td_cctv","source_key":"TD_TDS91004","name":"TD Tuen Mun Road near Ting Kau - Eastbound (1) [TDS91004]","monitored":true,"sky_score":0.7216}},{"type":"Feature","geometry":{"type":"Point","coordinates":[114.073865849,22.371049271]},"properties":{"source":"td_cctv","source_key":"TD_TDS90022","name":"TD Tuen Mun Road near Ting Kau - Westbound (3) [TDS90022]","monitored":true,"sky_score":0.7211}},{"type":"Feature","geometry":{"type":"Point","coordinates":[114.2054047,22.29401254]},"properties":{"source":"td_cctv","source_key":"TD_H801F","name":"TD Island Eastern Corridor near Ka Wah Centre [H801F]","monitored":true,"sky_score":0.7201}},{"type":"Feature","geometry":{"type":"Point","coordinates":[114.1618259,22.53909273]},"properties":{"source":"td_cctv","source_key":"TD_HH003F","name":"TD Heung Yuen Wai Highway near Ping Yeung Interchange [HH003F]","monitored":true,"sky_score":0.7143}},{"type":"Feature","geometry":{"type":"Point","coordinates":[114.001763145,22.471595587]},"properties":{"source":"td_cctv","source_key":"TD_TDSTYR20003","name":"TD Tin Ying Road near Lau Fau Shan Fire Station Cum Ambulance Depot - Westbound [TDSTYR20003]","monitored":true,"sky_score":0.7143}},{"type":"Feature","geometry":{"type":"Point","coordinates":[114.02783906,22.356203387]},"properties":{"source":"td_cctv","source_key":"TD_TDS91018","name":"TD Tuen Mun Road near Ka Loon Tsuen - Eastbound (2) [TDS91018]","monitored":true,"sky_score":0.7139}},{"type":"Feature","geometry":{"type":"Point","coordinates":[114.0949935,22.5040347999999]},"properties":{"source":"td_cctv","source_key":"TD_FH104F","name":"TD Fanling Highway near Kwu Tung [FH104F]","monitored":true,"sky_score":0.7078}},{"type":"Feature","geometry":{"type":"Point","coordinates":[114.172405447,22.451101159]},"properties":{"source":"td_cctv","source_key":"TD_TDSTPTWR10002","name":"TD Tai Po Tai Wo Road near New Territories North Regional Police Headquarters - Eastbound [TDSTPTWR10002]","monitored":true,"sky_score":0.7045}},{"type":"Feature","geometry":{"type":"Point","coordinates":[114.242769412,22.425107125]},"properties":{"source":"td_cctv","source_key":"TD_TDSMOSB10004","name":"TD Ma On Shan Bypass near Lee On Estate - Eastbound [TDSMOSB10004]","monitored":true,"sky_score":0.6993}},{"type":"Feature","geometry":{"type":"Point","coordinates":[114.1692661,22.29627254]},"properties":{"source":"td_cctv","source_key":"TD_K121F","name":"TD Canton Road near Salisbury Road [K121F]","monitored":true,"sky_score":0.6947}}]}