{
  "type": "FeatureCollection",
  "metadata": {
    "anchor": {
      "unity_x": 900.0,
      "unity_z": 2000.0,
      "lat": 22.318,
      "lon": 114.169
    },
    "source_file": "Orgs/system4-unity-simulation/Assets/HongKong/hk_setup.json",
    "note": "Generated by Tools/export_camera_geojson.py \u2014 do not edit by hand."
  },
  "features": [
    {
      "type": "Feature",
      "geometry": {
        "type": "Point",
        "coordinates": [
          114.169,
          22.3118915
        ]
      },
      "properties": {
        "source": "sim_unity",
        "source_key": "cam0",
        "name": "Sim cam0",
        "monitored": true,
        "alt_m": 15.0,
        "unity_x": 900.0,
        "unity_y": 15.0,
        "unity_z": 1320.0,
        "fov": 50,
        "heading_deg": 0.0
      }
    },
    {
      "type": "Feature",
      "geometry": {
        "type": "Point",
        "coordinates": [
          114.1743408,
          22.3135084
        ]
      },
      "properties": {
        "source": "sim_unity",
        "source_key": "cam1",
        "name": "Sim cam1",
        "monitored": true,
        "alt_m": 55.0,
        "unity_x": 1450.0,
        "unity_y": 55.0,
        "unity_z": 1500.0,
        "fov": 50,
        "heading_deg": 312.3
      }
    },
    {
      "type": "Feature",
      "geometry": {
        "type": "Point",
        "coordinates": [
          114.1753118,
          22.3166525
        ]
      },
      "properties": {
        "source": "sim_unity",
        "source_key": "cam2",
        "name": "Sim cam2",
        "monitored": true,
        "alt_m": 100.0,
        "unity_x": 1550.0,
        "unity_y": 100.0,
        "unity_z": 1850.0,
        "fov": 50,
        "heading_deg": 283.0
      }
    },
    {
      "type": "Feature",
      "geometry": {
        "type": "Point",
        "coordinates": [
          114.1738553,
          22.3220424
        ]
      },
      "properties": {
        "source": "sim_unity",
        "source_key": "cam3",
        "name": "Sim cam3",
        "monitored": true,
        "alt_m": 190.0,
        "unity_x": 1400.0,
        "unity_y": 190.0,
        "unity_z": 2450.0,
        "fov": 50,
        "heading_deg": 228.0
      }
    },
    {
      "type": "Feature",
      "geometry": {
        "type": "Point",
        "coordinates": [
          114.169,
          22.3233899
        ]
      },
      "properties": {
        "source": "sim_unity",
        "source_key": "cam4",
        "name": "Sim cam4",
        "monitored": true,
        "alt_m": 90.0,
        "unity_x": 900.0,
        "unity_y": 90.0,
        "unity_z": 2600.0,
        "fov": 50,
        "heading_deg": 180.0
      }
    },
    {
      "type": "Feature",
      "geometry": {
        "type": "Point",
        "coordinates": [
          114.1636592,
          22.3220424
        ]
      },
      "properties": {
        "source": "sim_unity",
        "source_key": "cam5",
        "name": "Sim cam5",
        "monitored": true,
        "alt_m": 160.0,
        "unity_x": 350.0,
        "unity_y": 160.0,
        "unity_z": 2450.0,
        "fov": 50,
        "heading_deg": 129.3
      }
    },
    {
      "type": "Feature",
      "geometry": {
        "type": "Point",
        "coordinates": [
          114.1629795,
          22.3148559
        ]
      },
      "properties": {
        "source": "sim_unity",
        "source_key": "cam6",
        "name": "Sim cam6",
        "monitored": true,
        "alt_m": 65.0,
        "unity_x": 280.0,
        "unity_y": 65.0,
        "unity_z": 1650.0,
        "fov": 50,
        "heading_deg": 60.6
      }
    },
    {
      "type": "Feature",
      "geometry": {
        "type": "Point",
        "coordinates": [
          114.169,
          22.3184492
        ]
      },
      "properties": {
        "source": "sim_unity",
        "source_key": "cam7",
        "name": "Sim cam7",
        "monitored": true,
        "alt_m": 550.0,
        "unity_x": 900.0,
        "unity_y": 550.0,
        "unity_z": 2050.0,
        "fov": 80,
        "heading_deg": 180.0
      }
    }
  ]
}
